{"type": "FeatureCollection", "features": [ {"type": "Feature", "properties": {"norad_id": 39122, "name": "EUTELSAT 117 WEST A", "group": "eutelsat", "lat": 0.028122479172552006, "lon": 48.98607552777986, "alt_km": 35797.37448493823, "timestamp": "2025-12-10T05:46:13.469039+00:00", "meta": {"OBJECT_NAME": "EUTELSAT 117 WEST A", "OBJECT_ID": "2013-012A", "EPOCH": "2025-12-09T14:43:46.035264", "MEAN_MOTION": 1.00270774, "ECCENTRICITY": 0.0003063, "INCLINATION": 0.0128, "RA_OF_ASC_NODE": 351.3101, "ARG_OF_PERICENTER": 269.3447, "MEAN_ANOMALY": 282.086, "EPHEMERIS_TYPE": 0, "CLASSIFICATION_TYPE": "U", "NORAD_CAT_ID": 39122, "ELEMENT_SET_NO": 999, "REV_AT_EPOCH": 4653, "BSTAR": 0, "MEAN_MOTION_DOT": -1e-07, "MEAN_MOTION_DDOT": 0}, "tle": {"line1": "1 39122U 13012A   25343.61372726 -.00000010  00000+0  00000+0 0  9995", "line2": "2 39122   0.0128 351.3101 0003063 269.3447 282.0860  1.00270774 46533"}}, "geometry": {"type": "Point", "coordinates": [48.98607552777986, 0.028122479172552006]}}, {"type": "Feature", "properties": {"norad_id": 39163, "name": "EUTELSAT 7B", "group": "eutelsat", "lat": 0.024456466606257582, "lon": 172.72763905695223, "alt_km": 35801.13336880827, "timestamp": "2025-12-10T05:46:13.469061+00:00", "meta": {"OBJECT_NAME": "EUTELSAT 7B", "OBJECT_ID": "2013-022A", "EPOCH": "2025-12-09T13:36:22.491072", "MEAN_MOTION": 1.00271707, "ECCENTRICITY": 0.0004563, "INCLINATION": 0.0707, "RA_OF_ASC_NODE": 14.9491, "ARG_OF_PERICENTER": 299.7285, "MEAN_ANOMALY": 334.959, "EPHEMERIS_TYPE": 0, "CLASSIFICATION_TYPE": "U", "NORAD_CAT_ID": 39163, "ELEMENT_SET_NO": 999, "REV_AT_EPOCH": 4605, "BSTAR": 0, "MEAN_MOTION_DOT": 5e-07, "MEAN_MOTION_DDOT": 0}, "tle": {"line1": "1 39163U 13022A   25343.56692698  .00000050  00000+0  00000+0 0  9991", "line2": "2 39163   0.0707  14.9491 0004563 299.7285 334.9590  1.00271707 46059"}}, "geometry": {"type": "Point", "coordinates": [172.72763905695223, 0.024456466606257582]}}, {"type": "Feature", "properties": {"norad_id": 39612, "name": "EXPRESS-AT1", "group": "eutelsat", "lat": -0.023289822673706443, "lon": -138.23374612150621, "alt_km": 35784.15547203027, "timestamp": "2025-12-10T05:46:13.469086+00:00", "meta": {"OBJECT_NAME": "EXPRESS-AT1", "OBJECT_ID": "2014-010A", "EPOCH": "2025-12-09T20:41:15.013248", "MEAN_MOTION": 1.00270539, "ECCENTRICITY": 5.59e-05, "INCLINATION": 0.0122, "RA_OF_ASC_NODE": 288.6927, "ARG_OF_PERICENTER": 275.4827, "MEAN_ANOMALY": 240.9771, "EPHEMERIS_TYPE": 0, "CLASSIFICATION_TYPE": "U", "NORAD_CAT_ID": 39612, "ELEMENT_SET_NO": 999, "REV_AT_EPOCH": 4292, "BSTAR": 0, "MEAN_MOTION_DOT": 8.2e-07, "MEAN_MOTION_DDOT": 0}, "tle": {"line1": "1 39612U 14010A   25343.86197932  .00000082  00000+0  00000+0 0  9997", "line2": "2 39612   0.0122 288.6927 0000559 275.4827 240.9771  1.00270539 42928"}}, "geometry": {"type": "Point", "coordinates": [-138.23374612150621, -0.023289822673706443]}}, {"type": "Feature", "properties": {"norad_id": 39613, "name": "EXPRESS-AT2", "group": "eutelsat", "lat": -0.011987024100217165, "lon": -54.35456477677723, "alt_km": 35779.75907897303, "timestamp": "2025-12-10T05:46:13.469100+00:00", "meta": {"OBJECT_NAME": "EXPRESS-AT2", "OBJECT_ID": "2014-010B", "EPOCH": "2025-12-09T19:22:30.059904", "MEAN_MOTION": 1.00272305, "ECCENTRICITY": 0.0001561, "INCLINATION": 0.0192, "RA_OF_ASC_NODE": 316.2201, "ARG_OF_PERICENTER": 330.3487, "MEAN_ANOMALY": 222.7154, "EPHEMERIS_TYPE": 0, "CLASSIFICATION_TYPE": "U", "NORAD_CAT_ID": 39613, "ELEMENT_SET_NO": 999, "REV_AT_EPOCH": 4260, "BSTAR": 0, "MEAN_MOTION_DOT": -2.78e-06, "MEAN_MOTION_DDOT": 0}, "tle": {"line1": "1 39613U 14010B   25343.80729236 -.00000278  00000+0  00000+0 0  9998", "line2": "2 39613   0.0192 316.2201 0001561 330.3487 222.7154  1.00272305 42607"}}, "geometry": {"type": "Point", "coordinates": [-54.35456477677723, -0.011987024100217165]}}, {"type": "Feature", "properties": {"norad_id": 39773, "name": "EUTELSAT 3B", "group": "eutelsat", "lat": -0.010061878207278285, "lon": 168.83175264394293, "alt_km": 35776.015387734245, "timestamp": "2025-12-10T05:46:13.469112+00:00", "meta": {"OBJECT_NAME": "EUTELSAT 3B", "OBJECT_ID": "2014-030A", "EPOCH": "2025-12-09T13:35:15.098208", "MEAN_MOTION": 1.00271476, "ECCENTRICITY": 0.0004739, "INCLINATION": 0.0629, "RA_OF_ASC_NODE": 341.9539, "ARG_OF_PERICENTER": 246.3265, "MEAN_ANOMALY": 57.1942, "EPHEMERIS_TYPE": 0, "CLASSIFICATION_TYPE": "U", "NORAD_CAT_ID": 39773, "ELEMENT_SET_NO": 999, "REV_AT_EPOCH": 4216, "BSTAR": 0, "MEAN_MOTION_DOT": 2.2e-07, "MEAN_MOTION_DDOT": 0}, "tle": {"line1": "1 39773U 14030A   25343.56614697  .00000022  00000+0  00000+0 0  9990", "line2": "2 39773   0.0629 341.9539 0004739 246.3265  57.1942  1.00271476 42162"}}, "geometry": {"type": "Point", "coordinates": [168.83175264394293, -0.010061878207278285]}}, {"type": "Feature", "properties": {"norad_id": 40425, "name": "EUTELSAT 115 WEST B", "group": "eutelsat", "lat": -0.009597580049276706, "lon": 50.8613369235407, "alt_km": 35786.14439071878, "timestamp": "2025-12-10T05:46:13.469125+00:00", "meta": {"OBJECT_NAME": "EUTELSAT 115 WEST B", "OBJECT_ID": "2015-010B", "EPOCH": "2025-12-09T10:03:18.437760", "MEAN_MOTION": 1.00267856, "ECCENTRICITY": 2.833e-05, "INCLINATION": 0.0086, "RA_OF_ASC_NODE": 153.759, "ARG_OF_PERICENTER": 289.3308, "MEAN_ANOMALY": 31.2487, "EPHEMERIS_TYPE": 0, "CLASSIFICATION_TYPE": "U", "NORAD_CAT_ID": 40425, "ELEMENT_SET_NO": 999, "REV_AT_EPOCH": 3949, "BSTAR": 0, "MEAN_MOTION_DOT": -2.2e-07, "MEAN_MOTION_DDOT": 0}, "tle": {"line1": "1 40425U 15010B   25343.41896340 -.00000022  00000+0  00000+0 0  9997", "line2": "2 40425   0.0086 153.7590 0000283 289.3308  31.2487  1.00267856 39492"}}, "geometry": {"type": "Point", "coordinates": [50.8613369235407, -0.009597580049276706]}}, {"type": "Feature", "properties": {"norad_id": 40875, "name": "EUTELSAT 8 WEST B", "group": "eutelsat", "lat": 0.027728165562023663, "lon": 157.74023320121782, "alt_km": 35789.80456535323, "timestamp": "2025-12-10T05:46:13.469137+00:00", "meta": {"OBJECT_NAME": "EUTELSAT 8 WEST B", "OBJECT_ID": "2015-039B", "EPOCH": "2025-12-09T13:31:52.921344", "MEAN_MOTION": 1.00271493, "ECCENTRICITY": 0.0004158, "INCLINATION": 0.0645, "RA_OF_ASC_NODE": 0.9958, "ARG_OF_PERICENTER": 258.725, "MEAN_ANOMALY": 13.8173, "EPHEMERIS_TYPE": 0, "CLASSIFICATION_TYPE": "U", "NORAD_CAT_ID": 40875, "ELEMENT_SET_NO": 999, "REV_AT_EPOCH": 3775, "BSTAR": 0, "MEAN_MOTION_DOT": -6.3e-07, "MEAN_MOTION_DDOT": 0}, "tle": {"line1": "1 40875U 15039B   25343.56380696 -.00000063  00000+0  00000+0 0  9990", "line2": "2 40875   0.0645   0.9958 0004158 258.7250  13.8173  1.00271493 37751"}}, "geometry": {"type": "Point", "coordinates": [157.74023320121782, 0.027728165562023663]}}, {"type": "Feature", "properties": {"norad_id": 41310, "name": "EUTELSAT 9B", "group": "eutelsat", "lat": 0.027462004898904737, "lon": 174.73093615598606, "alt_km": 35785.91112609735, "timestamp": "2025-12-10T05:46:13.469149+00:00", "meta": {"OBJECT_NAME": "EUTELSAT 9B", "OBJECT_ID": "2016-005A", "EPOCH": "2025-12-09T06:50:38.880672", "MEAN_MOTION": 1.00272177, "ECCENTRICITY": 0.000488, "INCLINATION": 0.0363, "RA_OF_ASC_NODE": 53.41, "ARG_OF_PERICENTER": 211.4344, "MEAN_ANOMALY": 285.108, "EPHEMERIS_TYPE": 0, "CLASSIFICATION_TYPE": "U", "NORAD_CAT_ID": 41310, "ELEMENT_SET_NO": 999, "REV_AT_EPOCH": 3621, "BSTAR": 0, "MEAN_MOTION_DOT": 6.4e-07, "MEAN_MOTION_DDOT": 0}, "tle": {"line1": "1 41310U 16005A   25343.28517223  .00000064  00000+0  00000+0 0  9996", "line2": "2 41310   0.0363  53.4100 0004880 211.4344 285.1080  1.00272177 36218"}}, "geometry": {"type": "Point", "coordinates": [174.73093615598606, 0.027462004898904737]}}, {"type": "Feature", "properties": {"norad_id": 41382, "name": "EUTELSAT 65 WEST A", "group": "eutelsat", "lat": 0.0672025014317487, "lon": 100.55989665037669, "alt_km": 35796.666407717334, "timestamp": "2025-12-10T05:46:13.469160+00:00", "meta": {"OBJECT_NAME": "EUTELSAT 65 WEST A", "OBJECT_ID": "2016-014A", "EPOCH": "2025-12-09T12:38:04.428096", "MEAN_MOTION": 1.0027273, "ECCENTRICITY": 0.00026485, "INCLINATION": 0.0502, "RA_OF_ASC_NODE": 5.1997, "ARG_OF_PERICENTER": 259.4638, "MEAN_ANOMALY": 298.1642, "EPHEMERIS_TYPE": 0, "CLASSIFICATION_TYPE": "U", "NORAD_CAT_ID": 41382, "ELEMENT_SET_NO": 999, "REV_AT_EPOCH": 3563, "BSTAR": 0, "MEAN_MOTION_DOT": -2.74e-06, "MEAN_MOTION_DDOT": 0}, "tle": {"line1": "1 41382U 16014A   25343.52644014 -.00000274  00000+0  00000+0 0  9995", "line2": "2 41382   0.0502   5.1997 0002648 259.4638 298.1642  1.00272730 35636"}}, "geometry": {"type": "Point", "coordinates": [100.55989665037669, 0.0672025014317487]}}, {"type": "Feature", "properties": {"norad_id": 41589, "name": "EUTELSAT 117 WEST B", "group": "eutelsat", "lat": -0.016087493133356643, "lon": 48.77672092831893, "alt_km": 35785.15200168723, "timestamp": "2025-12-10T05:46:13.469172+00:00", "meta": {"OBJECT_NAME": "EUTELSAT 117 WEST B", "OBJECT_ID": "2016-038B", "EPOCH": "2025-12-09T14:43:38.546112", "MEAN_MOTION": 1.00271212, "ECCENTRICITY": 3.69e-05, "INCLINATION": 0.0013, "RA_OF_ASC_NODE": 169.4503, "ARG_OF_PERICENTER": 286.2539, "MEAN_ANOMALY": 86.8165, "EPHEMERIS_TYPE": 0, "CLASSIFICATION_TYPE": "U", "NORAD_CAT_ID": 41589, "ELEMENT_SET_NO": 999, "REV_AT_EPOCH": 3476, "BSTAR": 0, "MEAN_MOTION_DOT": -9e-08, "MEAN_MOTION_DDOT": 0}, "tle": {"line1": "1 41589U 16038B   25343.61364058 -.00000009  00000+0  00000+0 0  9993", "line2": "2 41589   0.0013 169.4503 0000369 286.2539  86.8165  1.00271212 34764"}}, "geometry": {"type": "Point", "coordinates": [48.77672092831893, -0.016087493133356643]}}]}